IRIDIUM 26              
1 24903U 97043A   26009.05855832  .00000365  00000+0  11582-3 0  9997
2 24903  86.3943  24.0756 0002392  93.0876 267.0595 14.37353510486314
IRIDIUM 22              
1 24907U 97043E   26009.09017036  .00000331  00000+0  10690-3 0  9993
2 24907  86.3946  27.7792 0002286  88.7239 271.4220 14.36144186486328
DUMMY MASS 1            
1 24925U 97048A   26008.58525140  .00000482  00000+0  50405-4 0  9997
2 24925  86.3321  40.2783 0008401 125.9081 234.2925 14.87209827535659
DUMMY MASS 2            
1 24926U 97048B   26008.58172696  .00000477  00000+0  50173-4 0  9998
2 24926  86.3321  41.9257 0008820 136.5883 223.6038 14.86960315535424
IRIDIUM 29              
1 24944U 97051A   26008.55043134  .00000404  00000+0  13055-3 0  9990
2 24944  86.3928  57.6823 0002098  88.6662 271.4775 14.36687469482750
IRIDIUM 33              
1 24946U 97051C   26008.55188014  .00000385  00000+0  12802-3 0  9996
2 24946  86.3844  56.9631 0009727 120.4257 239.7901 14.35059452482199
IRIDIUM 28              
1 24948U 97051E   26008.60348034  .00000406  00000+0  12876-3 0  9999
2 24948  86.3934  55.0586 0002662  99.7469 260.4030 14.37588166483358
IRIDIUM 36              
1 24967U 97056C   26009.23076015  .00000466  00000+0  14806-3 0  9993
2 24967  86.3951  86.4249 0002422  93.7691 266.3784 14.37814056481828
